STARLINK-4688           
1 53714U 22107Q   22270.58334491  .00060964  00000+0  43648-3 0  9994
2 53714  53.2142 161.8245 0001334 136.6831 274.3506 15.73154912  3665
STARLINK-4686           
1 53715U 22107R   22270.25001157  .00018728  00000+0  13755-3 0  9996
2 53715  53.2139 163.4809 0001054 140.2477 179.3934 15.73200841  3596
STARLINK-4699           
1 53716U 22107S   22270.25001157 -.00049287  00000+0 -34861-3 0  9994
2 53716  53.2140 163.4800 0001116 134.5459 185.7559 15.73214091  3591
STARLINK-4702           
1 53717U 22107T   22270.58334491  .00300221  46533-4  75193-3 0  9996
2 53717  53.2107 159.6040 0006812 336.6485  74.7414 15.95211278  3674
STARLINK-4695           
1 53718U 22107U   22270.58334491  .00065690  00000+0  46958-3 0  9996
2 53718  53.2140 161.8269 0001417 136.8074 273.0084 15.73161159  3642
STARLINK-4644           
1 53719U 22107V   22270.58334491  .00226614  30441-4  65501-3 0  9994
2 53719  53.2107 159.8394 0007985 306.9229 350.7674 15.92567355  3670
STARLINK-4642           
1 53720U 22107W   22270.25001157  .00072563  00000+0  51663-3 0  9999
2 53720  53.2139 163.4826 0001134 136.9743 181.9461 15.73215633  3597
STARLINK-4707           
1 53721U 22107X   22270.25001157 -.00260364  00000+0 -18963-2 0  9995
2 53721  53.2140 163.4876 0001427 134.2122 182.3960 15.73350407  3590
STARLINK-4700           
1 53722U 22107Y   22270.58334491  .00116903  00000+0  82712-3 0  9993
2 53722  53.2142 161.8347 0001517 141.5639 264.6006 15.73162891  3641
STARLINK-4705           
1 53723U 22107Z   22270.58334491  .00112936  00000+0  80058-3 0  9997
2 53723  53.2142 161.8393 0001522 141.9144 261.9402 15.73133614  3645
STARLINK-4663           
1 53724U 22107AA  22270.25001157 -.00055339  00000+0 -39128-3 0  9999
2 53724  53.2137 163.4872 0001309 135.8894 180.7307 15.73270368  3591
STARLINK-4704           
1 53725U 22107AB  22270.58334491  .00289960  44034-4  73342-3 0  9999
2 53725  53.2103 159.6158 0006902 338.1776  67.4553 15.95034481  3671
STARLINK-4697           
1 53726U 22107AC  22270.58334491  .00061570  00000+0  44014-3 0  9999
2 53726  53.2141 161.8382 0001311 130.2947 274.0937 15.73186791  3645
STARLINK-4701           
1 53727U 22107AD  22270.58334491 -.00012047  00000+0 -81436-4 0  9997
2 53727  53.2142 161.8428 0001206 130.8028 271.2452 15.73230355  3644
STARLINK-4640           
1 53728U 22107AE  22269.91667824 -.00002360  00000+0 -12389-4 0  9990
2 53728  53.2142 165.1424 0001676 129.4167  95.3406 15.73217857  1304
STARLINK-4651           
1 53729U 22107AF  22269.91667824 -.00047139  00000+0 -33184-3 0  9999
2 53729  53.2141 165.1478 0001400 141.6638  80.4573 15.73303522  1302
STARLINK-4641           
1 53730U 22107AG  22269.91667824  .00030367  00000+0  22021-3 0  9992
2 53730  53.2141 165.1451 0001423 134.5816  88.8727 15.73177429  1307
STARLINK-4636           
1 53731U 22107AH  22270.25001157 -.00056015  00000+0 -39642-3 0  9990
2 53731  53.2140 163.5008 0001241 130.1395 179.9808 15.73254708  3590
STARLINK-4661           
1 53732U 22107AJ  22270.25001157 -.00031571  00000+0 -22085-3 0  9994
2 53732  53.2140 163.4973 0001440 126.7476 185.1120 15.73253720  3592
STARLINK-4574           
1 53733U 22107AK  22270.25001157  .00065641  00000+0  46908-3 0  9998
2 53733  53.2138 163.5031 0001027 120.2577 188.6717 15.73169242  3593
STARLINK-4616           
1 53734U 22107AL  22270.25001157 -.00046100  00000+0 -32534-3 0  9990
2 53734  53.2140 163.4995 0001155 130.4003 180.3425 15.73236734  3590
STARLINK-4618           
1 53735U 22107AM  22270.25001157 -.01215026  00000+0 -11715-1 0  9993
2 53735  53.2164 163.5375 0001453 140.7389 151.0662 15.68488599  3592
STARLINK-4652           
1 53736U 22107AN  22270.58334491  .00026053  00000+0  18953-3 0  9990
2 53736  53.2143 161.8503 0001495 134.9959 263.5245 15.73191962  3641
STARLINK-4646           
1 53737U 22107AP  22270.25001157 -.01230496  00000+0 -11885-1 0  9991
2 53737  53.2164 163.5391 0001426 138.7508 152.3125 15.68480240  3595
STARLINK-4662           
1 53738U 22107AQ  22270.25001157 -.01220438  00000+0 -11762-1 0  9991
2 53738  53.2165 163.5359 0001243 121.4040 171.1341 15.68512967  3599
STARLINK-4613           
1 53739U 22107AR  22269.82006648  .00209367  28226-4  52527-3 0  9999
2 53739  53.2111 163.4751 0006858 334.2664  25.8024 15.95267273  3476
STARLINK-4607           
1 53740U 22107AS  22270.25001157 -.01250261  00000+0 -12101-1 0  9999
2 53740  53.2164 163.5404 0001457 139.5905 150.7317 15.68473101  3591
STARLINK-4614           
1 53741U 22107AT  22270.25001157 -.01198470  00000+0 -11595-1 0  9999
2 53741  53.2172 163.5449 0001348 135.5179 152.6147 15.68370800  3592
STARLINK-4637           
1 53742U 22107AU  22270.25001157 -.01212922  00000+0 -11724-1 0  9993
2 53742  53.2165 163.5420 0001364 137.4612 152.1383 15.68424438  3599
STARLINK-4645           
1 53743U 22107AV  22270.25001157 -.01229438  00000+0 -11936-1 0  9999
2 53743  53.2164 163.5483 0001457 139.8898 146.7532 15.68353428  3598
STARLINK-4670           
1 53744U 22107AW  22270.25001157 -.01219908  00000+0 -11807-1 0  9998
2 53744  53.2165 163.5435 0001274 129.9742 158.8861 15.68408816  3593
STARLINK-4656           
1 53745U 22107AX  22270.25001157 -.01230183  00000+0 -11954-1 0  9990
2 53745  53.2164 163.5499 0001352 137.2967 148.6053 15.68334271  3594
STARLINK-4589           
1 53746U 22107AY  22270.58334491 -.01189479  00000+0 -11926-1 0  9997
2 53746  53.2168 161.9081 0001337 137.9943 231.9759 15.67485445  3646
STARLINK-4657           
1 53747U 22107AZ  22267.50002315  .00437772  92629-4  86848-3 0  9992
2 53747  53.2115 175.0362 0006117 298.4430 194.6689 15.99371517  1309
STARLINK-4669           
1 53748U 22107BA  22270.25001157 -.01233522  00000+0 -11999-1 0  9992
2 53748  53.2164 163.5512 0001473 138.7837 146.3784 15.68315136  3594
STARLINK-4680           
1 53749U 22107BB  22270.25001157 -.01229740  00000+0 -11971-1 0  9990
2 53749  53.2167 163.5533 0001173 116.0552 168.3673 15.68291866  3595
STARLINK-4612           
1 53750U 22107BC  22270.25001157 -.01242537  00000+0 -12115-1 0  9992
2 53750  53.2164 163.5543 0001238 123.1567 160.5203 15.68280540  3592
FALCON 9 DEB            
1 53751U 22107BD  22269.93007837  .00323686  54068-4  69258-3 0  9999
2 53751  53.2114 162.7320 0006323 318.1889  41.8658 15.98068596  3497
SHERPA-LTC2             
1 53752U 22107BE  22270.19821088  .00304353  48004-4  72339-3 0  9999
2 53752  53.2082 161.5661 0008285 345.6411  14.4382 15.96150690  3532
FALCON 9 DEB            
1 53753U 22107BF  22270.18631769  .00385343  72613-4  81884-3 0  9990
2 53753  53.2082 161.4865 0008340 317.0573  42.9806 15.98136117  3539
FALCON 9 DEB            
1 53754U 22107BG  22270.15673747  .00151598  19708-4  44898-3 0  9993
2 53754  53.2130 162.0359 0009092 340.7084  19.3599 15.92225039  3526
FALCON 9 DEB            
1 53755U 22107BH  22270.10661662  .00381510  72608-4  74880-3 0  9993
2 53755  53.2050 161.6873 0005399 302.9460  57.1052 15.99583309  3526
FALCON 9 DEB            
1 53756U 22107BJ  22270.16526834  .00405816  81371-4  77797-3 0  9994
2 53756  53.2070 161.3422 0006549 296.5857  63.4503 15.99973829  3534
CENTISPACE-1 S3         
1 53757U 22108A   22270.46460043 -.00001695  00000+0 -32484-3 0  9996
2 53757  53.5328 258.7286 0009225 341.0060  19.0572 14.58214479  3119
CENTISPACE-1 S4         
1 53758U 22108B   22270.47229323  .00000237  00000+0  91429-4 0  9996
2 53758  53.5294 258.7644 0008987 325.9326  34.1071 14.57721141  3110
KZ-1A R/B               
1 53759U 22108C   22270.21788467  .00451463  10067-4  64810-3 0  9991
2 53759  53.5573 248.2374 0342805 142.5866 219.9513 15.46348928  3242
YAOGAN-35 05A           
1 53760U 22109A   22270.27066208 -.00030662  00000+0 -12699-2 0  9996
2 53760  34.9979 252.8606 0006474  96.9963 285.9432 15.23158376  3227
YAOGAN-35 05B           
1 53761U 22109B   22270.41807800  .00010321  00000+0  42717-3 0  9997
2 53761  34.9954 251.8804 0006105 124.4933   7.5712 15.23157983  3205
CZ-2D DEB               
1 53762U 22109C   22270.34238115  .00017782  00000+0  71053-3 0  9990
2 53762  34.9958 252.2683 0007818 103.1344   7.0873 15.24241979  3193
YAOGAN-35 05C           
1 53763U 22109D   22270.42121529  .00006942  00000+0  28705-3 0  9992
2 53763  34.9973 251.9060 0005384 108.6525  24.0904 15.23268027  3201
CZ-2D R/B               
1 53764U 22109E   22270.34392394  .00033259  00000+0  13182-2 0  9997
2 53764  34.9961 252.2750 0008052  97.5426  13.0927 15.24410219  3194
EUTELSAT KONNECT VHTS   
1 53765U 22110A   22270.05944900 -.00000132  00000+0  00000+0 0  9991
2 53765   2.8559 141.6135 7803250 181.5913 148.3740  1.09482663   221
ARIANE 5 R/B            
1 53766U 22110B   22269.55330117  .00000649  00000+0  99870-3 0  9993
2 53766   3.2913 146.8573 8153638 177.0373 196.9405  1.26384220   241
1998-067UE              
1 53767U 98067UE  22269.06498603  .00030327  00000+0  49970-3 0  9991
2 53767  51.6422 196.6199 0002964 343.2457  16.8434 15.52044999  3063
BEAVERCUBE              
1 53768U 98067UF  22269.06671429  .00029468  00000+0  48825-3 0  9993
2 53768  51.6417 196.6311 0000822  11.1757 348.9250 15.51907066  3077
CLICK-A                 
1 53769U 98067UG  22270.03022370  .00049527  00000+0  79897-3 0  9999
2 53769  51.6429 191.8186 0000892 337.1586  22.9364 15.52405574  3226
1998-067UH              
1 53770U 98067UH  22270.08940372  .00054565  00000+0  85883-3 0  9997
2 53770  51.6414 191.4625 0001966 325.8412  34.2451 15.53047037  3232
JAGSAT                  
1 53771U 98067UJ  22269.25175131  .00056373  00000+0  88466-3 0  9997
2 53771  51.6419 195.6174 0002056 326.9466  33.1395 15.53115343  3090
STARLINK-4718           
1 53773U 22111A   22269.91667824  .00023134  00000+0  16887-3 0  9991
2 53773  53.2164 188.6330 0001388 117.0298 231.6850 15.73188958  1309
